{
  "type": "FeatureCollection",
  "features": [
    {
      "type": "Feature",
      "properties": {
        "norad_id": 29268,
        "name": "ARIRANG-2 (KOMPSAT-2)",
        "group": "resource",
        "lat": -82.03974342811856,
        "lon": -89.94597119246326,
        "alt_km": 681.1848899297811,
        "timestamp": "2025-12-06T22:38:42.391418+00:00",
        "meta_object_name": "ARIRANG-2 (KOMPSAT-2)",
        "meta_object_id": "2006-031A",
        "meta_epoch": "2025-12-06T15:11:22.407936",
        "meta_mean_motion": 14.64485588,
        "meta_eccentricity": 0.00137998,
        "meta_inclination": 97.8271,
        "meta_ra_of_asc_node": 169.4037,
        "meta_arg_of_pericenter": 329.4162,
        "meta_mean_anomaly": 102.4938,
        "meta_ephemeris_type": 0,
        "meta_classification_type": "U",
        "meta_norad_cat_id": 29268,
        "meta_element_set_no": 999,
        "meta_rev_at_epoch": 3329,
        "meta_bstar": 0.00015405595,
        "meta_mean_motion_dot": 7.72e-06,
        "meta_mean_motion_ddot": 0,
        "tle_line1": "1 29268U 06031A   25340.63289824  .00000772  00000+0  15406-3 0  9997",
        "tle_line2": "2 29268  97.8271 169.4037 0013799 329.4162 102.4938 14.64485588 33296"
      },
      "geometry": {
        "type": "Point",
        "coordinates": [
          -89.94597119246326,
          -82.03974342811856
        ]
      }
    },
    {
      "type": "Feature",
      "properties": {
        "norad_id": 29709,
        "name": "LAPAN-TUBSAT",
        "group": "resource",
        "lat": 57.0143182162884,
        "lon": 163.6966367205189,
        "alt_km": 597.8563980639346,
        "timestamp": "2025-12-06T22:38:42.391429+00:00",
        "meta_object_name": "LAPAN-TUBSAT",
        "meta_object_id": "2007-001A",
        "meta_epoch": "2025-12-06T14:01:00.061536",
        "meta_mean_motion": 14.85656526,
        "meta_eccentricity": 0.00136387,
        "meta_inclination": 98.1251,
        "meta_ra_of_asc_node": 330.6141,
        "meta_arg_of_pericenter": 92.474,
        "meta_mean_anomaly": 267.8036,
        "meta_ephemeris_type": 0,
        "meta_classification_type": "U",
        "meta_norad_cat_id": 29709,
        "meta_element_set_no": 999,
        "meta_rev_at_epoch": 2255,
        "meta_bstar": 0.00015309295,
        "meta_mean_motion_dot": 1.271e-05,
        "meta_mean_motion_ddot": 0,
        "tle_line1": "1 29709U 07001A   25340.58402849  .00001271  00000+0  15309-3 0  9990",
        "tle_line2": "2 29709  98.1251 330.6141 0013638  92.4740 267.8036 14.85656526 22554"
      },
      "geometry": {
        "type": "Point",
        "coordinates": [
          163.6966367205189,
          57.0143182162884
        ]
      }
    },
    {
      "type": "Feature",
      "properties": {
        "norad_id": 31113,
        "name": "HAIYANG-1B",
        "group": "resource",
        "lat": 65.48983039588065,
        "lon": -53.28481392795856,
        "alt_km": 771.9689640636525,
        "timestamp": "2025-12-06T22:38:42.391439+00:00",
        "meta_object_name": "HAIYANG-1B",
        "meta_object_id": "2007-010A",
        "meta_epoch": "2025-12-06T13:56:37.559328",
        "meta_mean_motion": 14.30961925,
        "meta_eccentricity": 0.00145151,
        "meta_inclination": 98.3308,
        "meta_ra_of_asc_node": 325.1137,
        "meta_arg_of_pericenter": 55.0701,
        "meta_mean_anomaly": 305.1844,
        "meta_ephemeris_type": 0,
        "meta_classification_type": "U",
        "meta_norad_cat_id": 31113,
        "meta_element_set_no": 999,
        "meta_rev_at_epoch": 97308,
        "meta_bstar": 0.00011300234,
        "meta_mean_motion_dot": 2.56e-06,
        "meta_mean_motion_ddot": 0,
        "tle_line1": "1 31113U 07010A   25340.58099027  .00000256  00000+0  11300-3 0  9991",
        "tle_line2": "2 31113  98.3308 325.1137 0014515  55.0701 305.1844 14.30961925973080"
      },
      "geometry": {
        "type": "Point",
        "coordinates": [
          -53.28481392795856,
          65.48983039588065
        ]
      }
    },
    {
      "type": "Feature",
      "properties": {
        "norad_id": 31598,
        "name": "COSMO-SKYMED 1",
        "group": "resource",
        "lat": -47.85375470580097,
        "lon": -22.501631566277318,
        "alt_km": 587.7601350375562,
        "timestamp": "2025-12-06T22:38:42.391450+00:00",
        "meta_object_name": "COSMO-SKYMED 1",
        "meta_object_id": "2007-023A",
        "meta_epoch": "2025-12-06T13:35:57.217344",
        "meta_mean_motion": 14.95696573,
        "meta_eccentricity": 0.00011621,
        "meta_inclination": 97.8835,
        "meta_ra_of_asc_node": 165.9259,
        "meta_arg_of_pericenter": 78.6726,
        "meta_mean_anomaly": 281.4625,
        "meta_ephemeris_type": 0,
        "meta_classification_type": "U",
        "meta_norad_cat_id": 31598,
        "meta_element_set_no": 999,
        "meta_rev_at_epoch": 98,
        "meta_bstar": 0.00054226524,
        "meta_mean_motion_dot": 5.978e-05,
        "meta_mean_motion_ddot": 0,
        "tle_line1": "1 31598U 07023A   25340.56663446  .00005978  00000+0  54227-3 0  9993",
        "tle_line2": "2 31598  97.8835 165.9259 0001162  78.6726 281.4625 14.95696573   981"
      },
      "geometry": {
        "type": "Point",
        "coordinates": [
          -22.501631566277318,
          -47.85375470580097
        ]
      }
    },
    {
      "type": "Feature",
      "properties": {
        "norad_id": 31698,
        "name": "TERRASAR-X",
        "group": "resource",
        "lat": 62.52737620526914,
        "lon": -179.02633785012884,
        "alt_km": 501.32960452592033,
        "timestamp": "2025-12-06T22:38:42.391461+00:00",
        "meta_object_name": "TERRASAR-X",
        "meta_object_id": "2007-026A",
        "meta_epoch": "2025-12-06T14:13:48.566208",
        "meta_mean_motion": 15.19149934,
        "meta_eccentricity": 0.00017836,
        "meta_inclination": 97.4444,
        "meta_ra_of_asc_node": 346.0634,
        "meta_arg_of_pericenter": 82.9925,
        "meta_mean_anomaly": 277.1512,
        "meta_ephemeris_type": 0,
        "meta_classification_type": "U",
        "meta_norad_cat_id": 31698,
        "meta_element_set_no": 999,
        "meta_rev_at_epoch": 2398,
        "meta_bstar": 0.00013540591,
        "meta_mean_motion_dot": 2.777e-05,
        "meta_mean_motion_ddot": 0,
        "tle_line1": "1 31698U 07026A   25340.59292322  .00002777  00000+0  13541-3 0  9999",
        "tle_line2": "2 31698  97.4444 346.0634 0001783  82.9925 277.1512 15.19149934 23984"
      },
      "geometry": {
        "type": "Point",
        "coordinates": [
          -179.02633785012884,
          62.52737620526914
        ]
      }
    },
    {
      "type": "Feature",
      "properties": {
        "norad_id": 32060,
        "name": "WORLDVIEW-1 (WV-1)",
        "group": "resource",
        "lat": 3.7961279247467226,
        "lon": 98.01418099201045,
        "alt_km": 494.7761036907568,
        "timestamp": "2025-12-06T22:38:42.391471+00:00",
        "meta_object_name": "WORLDVIEW-1 (WV-1)",
        "meta_object_id": "2007-041A",
        "meta_epoch": "2025-12-06T14:45:07.529472",
        "meta_mean_motion": 15.24537198,
        "meta_eccentricity": 7.009e-05,
        "meta_inclination": 97.3846,
        "meta_ra_of_asc_node": 98.1831,
        "meta_arg_of_pericenter": 100.0358,
        "meta_mean_anomaly": 260.0958,
        "meta_ephemeris_type": 0,
        "meta_classification_type": "U",
        "meta_norad_cat_id": 32060,
        "meta_element_set_no": 999,
        "meta_rev_at_epoch": 1354,
        "meta_bstar": 0.00058806761,
        "meta_mean_motion_dot": 0.00014417,
        "meta_mean_motion_ddot": 0,
        "tle_line1": "1 32060U 07041A   25340.61467048  .00014417  00000+0  58807-3 0  9990",
        "tle_line2": "2 32060  97.3846  98.1831 0000700 100.0358 260.0958 15.24537198 13542"
      },
      "geometry": {
        "type": "Point",
        "coordinates": [
          98.01418099201045,
          3.7961279247467226
        ]
      }
    },
    {
      "type": "Feature",
      "properties": {
        "norad_id": 32289,
        "name": "YAOGAN-3",
        "group": "resource",
        "lat": -20.509154846041763,
        "lon": -175.33203817987996,
        "alt_km": 604.3680815230673,
        "timestamp": "2025-12-06T22:38:42.391482+00:00",
        "meta_object_name": "YAOGAN-3",
        "meta_object_id": "2007-055A",
        "meta_epoch": "2025-12-06T15:17:59.669952",
        "meta_mean_motion": 14.89815432,
        "meta_eccentricity": 0.0001514,
        "meta_inclination": 97.8368,
        "meta_ra_of_asc_node": 7.3179,
        "meta_arg_of_pericenter": 77.4051,
        "meta_mean_anomaly": 282.7336,
        "meta_ephemeris_type": 0,
        "meta_classification_type": "U",
        "meta_norad_cat_id": 32289,
        "meta_element_set_no": 999,
        "meta_rev_at_epoch": 97718,
        "meta_bstar": 0.0004986101,
        "meta_mean_motion_dot": 4.732e-05,
        "meta_mean_motion_ddot": 0,
        "tle_line1": "1 32289U 07055A   25340.63749618  .00004732  00000+0  49861-3 0  9995",
        "tle_line2": "2 32289  97.8368   7.3179 0001514  77.4051 282.7336 14.89815432977187"
      },
      "geometry": {
        "type": "Point",
        "coordinates": [
          -175.33203817987996,
          -20.509154846041763
        ]
      }
    }
  ]
}